[Satellite]
VERSION=1.1
NAME=GSAT0205 (PRN E24)
NICKNAME=GSAT0205 (PRN E24)
TLE1=1 40889U 15045A   22341.09527685 -.00000019  00000+0  00000+0 0  9997
TLE2=2 40889  55.5168 257.1953 0005677  13.6954 346.3538  1.70472896 45056
STATUS=0
